[{"OBJECT_NAME":"STARLINK-5686","OBJECT_ID":"2023-015B","EPOCH":"2026-03-09T22:08:18.010752","MEAN_MOTION":15.03531284,"ECCENTRICITY":0.00011421,"INCLINATION":43.0018,"RA_OF_ASC_NODE":325.1936,"ARG_OF_PERICENTER":277.4913,"MEAN_ANOMALY":82.58,"EPHEMERIS_TYPE":0,"CLASSIFICATION_TYPE":"U","NORAD_CAT_ID":55450,"ELEMENT_SET_NO":999,"REV_AT_EPOCH":17172,"BSTAR":0.0081001838,"MEAN_MOTION_DOT":0.00113991,"MEAN_MOTION_DDOT":0},{"OBJECT_NAME":"LEMUR-2-SQUIRRELCOMM","OBJECT_ID":"2024-149DQ","EPOCH":"2026-03-09T21:26:31.466400","MEAN_MOTION":15.05887962,"ECCENTRICITY":0.00061012,"INCLINATION":97.6754,"RA_OF_ASC_NODE":150.1976,"ARG_OF_PERICENTER":42.3481,"MEAN_ANOMALY":317.8216,"EPHEMERIS_TYPE":0,"CLASSIFICATION_TYPE":"U","NORAD_CAT_ID":60578,"ELEMENT_SET_NO":999,"REV_AT_EPOCH":8545,"BSTAR":0.00060830109,"MEAN_MOTION_DOT":8.786e-5,"MEAN_MOTION_DDOT":0}]
